IRIDIUM 150             
1 43257U 18030J   24065.62364973 -.00000002  00000+0 -76037-5 0  9991
2 43257  86.3920 278.8239 0002226  94.7927 265.3523 14.34217834310681
IRIDIUM 143             
1 43258U 18030K   24065.67439116  .00000090  00000+0  24933-4 0  9991
2 43258  86.3925 278.8626 0002532  89.2738 270.8748 14.34216944310654
IRIDIUM 161             
1 43478U 18047C   24065.74287935  .00000274  00000+0  75480-4 0  9998
2 43478  86.4431  76.7959 0002257  91.0183 269.1276 14.43295434304925
IRIDIUM 152             
1 43479U 18047D   24065.57734201  .00000086  00000+0  23706-4 0  9998
2 43479  86.3905  76.7246 0002361  89.1358 271.0109 14.34217496303005
IRIDIUM 147             
1 43480U 18047E   24065.44414606  .00000127  00000+0  38192-4 0  9991
2 43480  86.3906  76.7708 0002061  92.0129 268.1303 14.34217945302985
IRIDIUM 110             
1 43481U 18047F   24065.72956283  .00000110  00000+0  32301-4 0  9993
2 43481  86.3909  76.7215 0001892  98.6624 261.4787 14.34217878303017
IRIDIUM 162             
1 43482U 18047G   24065.52872479  .00000270  00000+0  74187-4 0  9991
2 43482  86.4429  76.7868 0002175  90.0005 270.1445 14.43274096304883
IRIDIUM 160             
1 43569U 18061A   24065.67539833  .00000070  00000+0  17927-4 0  9990
2 43569  86.3956  45.0930 0002085  77.2159 282.9270 14.34217750293900
